ONEWEB-0321             
1 49191U 21083F   26062.67171027  .00000114  00000+0  24967-3 0  9991
2 49191  87.9185 295.5025 0001782  92.9216 267.2122 13.20772914222902
ONEWEB-0322             
1 49192U 21083G   26062.72560493 -.00000228  00000+0 -65961-3 0  9994
2 49192  87.9031 341.2187 0001695  94.3663 265.7660 13.13469102217072
ONEWEB-0324             
1 49193U 21083H   26062.74333528  .00000108  00000+0  24037-3 0  9998
2 49193  87.9250 356.3865 0001974  77.8857 282.2496 13.18686689216107
ONEWEB-0325             
1 49194U 21083J   26062.74663958  .00000053  00000+0  10193-3 0  9999
2 49194  87.9242 356.4033 0001739  79.4125 280.7203 13.18685517216111
ONEWEB-0326             
1 49195U 21083K   26062.76161387  .00000080  00000+0  17009-3 0  9994
2 49195  87.9250 356.3891 0001651  70.3923 289.7387 13.18686863216107
ONEWEB-0327             
1 49196U 21083L   26062.76130440  .00003090  00000+0  77993-2 0  9992
2 49196  87.9245 356.4014 0001538  71.4718 288.6582 13.18713090216128
ONEWEB-0328             
1 49197U 21083M   26062.79162648 -.00000264  00000+0 -75828-3 0  9999
2 49197  87.9050 341.1641 0001882  76.1243 284.0096 13.13469257217069
ONEWEB-0331             
1 49198U 21083N   26062.29962688  .00000083  00000+0  17688-3 0  9994
2 49198  87.9249 356.4738 0001872  68.5900 291.5432 13.18685857216056
ONEWEB-0333             
1 49199U 21083P   26062.78654727 -.00000145  00000+0 -43307-3 0  9999
2 49199  87.9029 341.2054 0001691  78.1325 281.9993 13.13469309217078
ONEWEB-0334             
1 49200U 21083Q   26062.68908152  .00000064  00000+0  12449-3 0  9996
2 49200  87.9173 295.5182 0001797 116.1097 244.0221 13.20772004222864
ONEWEB-0335             
1 49201U 21083R   26062.70528825 -.00000082  00000+0 -25858-3 0  9995
2 49201  87.9038 341.2145 0001754  72.1317 288.0003 13.13468329217079
ONEWEB-0336             
1 49202U 21083S   26062.67651419  .00000427  00000+0  11335-2 0  9993
2 49202  87.9037 341.2166 0001866  65.5610 294.5713 13.13469629217061
ONEWEB-0337             
1 49203U 21083T   26062.76272166  .00000330  00000+0  86763-3 0  9993
2 49203  87.9032 341.2097 0001912  74.9182 285.2159 13.13469450217074
ONEWEB-0338             
1 49204U 21083U   26062.66381830  .00000027  00000+0  34864-4 0  9991
2 49204  87.9174 295.5277 0001633  95.9916 264.1403 13.20769807222881
ONEWEB-0339             
1 49205U 21083V   26062.77131950  .00000211  00000+0  54164-3 0  9999
2 49205  87.9042 341.1951 0001856  87.2168 272.9173 13.13469227217052
ONEWEB-0340             
1 49206U 21083W   26062.74168546  .00000037  00000+0  61914-4 0  9996
2 49206  87.9251 356.3918 0001801  75.1292 285.0039 13.18686187216078
ONEWEB-0341             
1 49207U 21083X   26062.74828732  .00000078  00000+0  16424-3 0  9997
2 49207  87.9247 356.4007 0002320  76.5277 283.6114 13.18686142216090
