[{"OBJECT_NAME":"ONEWEB-0321","OBJECT_ID":"2021-083F","EPOCH":"2026-03-03T16:07:15.767328","MEAN_MOTION":13.20772914,"ECCENTRICITY":0.0001782,"INCLINATION":87.9185,"RA_OF_ASC_NODE":295.5025,"ARG_OF_PERICENTER":92.9216,"MEAN_ANOMALY":267.2122,"EPHEMERIS_TYPE":0,"CLASSIFICATION_TYPE":"U","NORAD_CAT_ID":49191,"ELEMENT_SET_NO":999,"REV_AT_EPOCH":22290,"BSTAR":0.00024967,"MEAN_MOTION_DOT":1.14e-6,"MEAN_MOTION_DDOT":0},{"OBJECT_NAME":"ONEWEB-0322","OBJECT_ID":"2021-083G","EPOCH":"2026-03-03T17:24:52.265952","MEAN_MOTION":13.13469102,"ECCENTRICITY":0.0001695,"INCLINATION":87.9031,"RA_OF_ASC_NODE":341.2187,"ARG_OF_PERICENTER":94.3663,"MEAN_ANOMALY":265.766,"EPHEMERIS_TYPE":0,"CLASSIFICATION_TYPE":"U","NORAD_CAT_ID":49192,"ELEMENT_SET_NO":999,"REV_AT_EPOCH":21707,"BSTAR":-0.00065961,"MEAN_MOTION_DOT":-2.28e-6,"MEAN_MOTION_DDOT":0},{"OBJECT_NAME":"ONEWEB-0324","OBJECT_ID":"2021-083H","EPOCH":"2026-03-03T17:50:24.168192","MEAN_MOTION":13.18686689,"ECCENTRICITY":0.0001974,"INCLINATION":87.925,"RA_OF_ASC_NODE":356.3865,"ARG_OF_PERICENTER":77.8857,"MEAN_ANOMALY":282.2496,"EPHEMERIS_TYPE":0,"CLASSIFICATION_TYPE":"U","NORAD_CAT_ID":49193,"ELEMENT_SET_NO":999,"REV_AT_EPOCH":21610,"BSTAR":0.00024037,"MEAN_MOTION_DOT":1.08e-6,"MEAN_MOTION_DDOT":0},{"OBJECT_NAME":"ONEWEB-0325","OBJECT_ID":"2021-083J","EPOCH":"2026-03-03T17:55:09.659712","MEAN_MOTION":13.18685517,"ECCENTRICITY":0.0001739,"INCLINATION":87.9242,"RA_OF_ASC_NODE":356.4033,"ARG_OF_PERICENTER":79.4125,"MEAN_ANOMALY":280.7203,"EPHEMERIS_TYPE":0,"CLASSIFICATION_TYPE":"U","NORAD_CAT_ID":49194,"ELEMENT_SET_NO":999,"REV_AT_EPOCH":21611,"BSTAR":0.00010193,"MEAN_MOTION_DOT":5.3e-7,"MEAN_MOTION_DDOT":0},{"OBJECT_NAME":"ONEWEB-0326","OBJECT_ID":"2021-083K","EPOCH":"2026-03-03T18:16:43.438368","MEAN_MOTION":13.18686863,"ECCENTRICITY":0.0001651,"INCLINATION":87.925,"RA_OF_ASC_NODE":356.3891,"ARG_OF_PERICENTER":70.3923,"MEAN_ANOMALY":289.7387,"EPHEMERIS_TYPE":0,"CLASSIFICATION_TYPE":"U","NORAD_CAT_ID":49195,"ELEMENT_SET_NO":999,"REV_AT_EPOCH":21610,"BSTAR":0.00017009,"MEAN_MOTION_DOT":8.0e-7,"MEAN_MOTION_DDOT":0},{"OBJECT_NAME":"ONEWEB-0327","OBJECT_ID":"2021-083L","EPOCH":"2026-03-03T18:16:16.700160","MEAN_MOTION":13.1871309,"ECCENTRICITY":0.0001538,"INCLINATION":87.9245,"RA_OF_ASC_NODE":356.4014,"ARG_OF_PERICENTER":71.4718,"MEAN_ANOMALY":288.6582,"EPHEMERIS_TYPE":0,"CLASSIFICATION_TYPE":"U","NORAD_CAT_ID":49196,"ELEMENT_SET_NO":999,"REV_AT_EPOCH":21612,"BSTAR":0.0077993,"MEAN_MOTION_DOT":3.09e-5,"MEAN_MOTION_DDOT":0},{"OBJECT_NAME":"ONEWEB-0328","OBJECT_ID":"2021-083M","EPOCH":"2026-03-03T18:59:56.527872","MEAN_MOTION":13.13469257,"ECCENTRICITY":0.0001882,"INCLINATION":87.905,"RA_OF_ASC_NODE":341.1641,"ARG_OF_PERICENTER":76.1243,"MEAN_ANOMALY":284.0096,"EPHEMERIS_TYPE":0,"CLASSIFICATION_TYPE":"U","NORAD_CAT_ID":49197,"ELEMENT_SET_NO":999,"REV_AT_EPOCH":21706,"BSTAR":-0.00075828,"MEAN_MOTION_DOT":-2.64e-6,"MEAN_MOTION_DDOT":0},{"OBJECT_NAME":"ONEWEB-0331","OBJECT_ID":"2021-083N","EPOCH":"2026-03-03T07:11:27.762432","MEAN_MOTION":13.18685857,"ECCENTRICITY":0.00018725,"INCLINATION":87.9249,"RA_OF_ASC_NODE":356.4738,"ARG_OF_PERICENTER":68.59,"MEAN_ANOMALY":291.5432,"EPHEMERIS_TYPE":0,"CLASSIFICATION_TYPE":"U","NORAD_CAT_ID":49198,"ELEMENT_SET_NO":999,"REV_AT_EPOCH":21605,"BSTAR":0.00017687618,"MEAN_MOTION_DOT":8.3e-7,"MEAN_MOTION_DDOT":0},{"OBJECT_NAME":"ONEWEB-0333","OBJECT_ID":"2021-083P","EPOCH":"2026-03-03T18:52:37.684128","MEAN_MOTION":13.13469309,"ECCENTRICITY":0.0001691,"INCLINATION":87.9029,"RA_OF_ASC_NODE":341.2054,"ARG_OF_PERICENTER":78.1325,"MEAN_ANOMALY":281.9993,"EPHEMERIS_TYPE":0,"CLASSIFICATION_TYPE":"U","NORAD_CAT_ID":49199,"ELEMENT_SET_NO":999,"REV_AT_EPOCH":21707,"BSTAR":-0.00043307,"MEAN_MOTION_DOT":-1.45e-6,"MEAN_MOTION_DDOT":0},{"OBJECT_NAME":"ONEWEB-0334","OBJECT_ID":"2021-083Q","EPOCH":"2026-03-03T16:32:16.643328","MEAN_MOTION":13.20772004,"ECCENTRICITY":0.0001797,"INCLINATION":87.9173,"RA_OF_ASC_NODE":295.5182,"ARG_OF_PERICENTER":116.1097,"MEAN_ANOMALY":244.0221,"EPHEMERIS_TYPE":0,"CLASSIFICATION_TYPE":"U","NORAD_CAT_ID":49200,"ELEMENT_SET_NO":999,"REV_AT_EPOCH":22286,"BSTAR":0.00012449,"MEAN_MOTION_DOT":6.4e-7,"MEAN_MOTION_DDOT":0},{"OBJECT_NAME":"ONEWEB-0335","OBJECT_ID":"2021-083R","EPOCH":"2026-03-03T16:55:36.904800","MEAN_MOTION":13.13468329,"ECCENTRICITY":0.0001754,"INCLINATION":87.9038,"RA_OF_ASC_NODE":341.2145,"ARG_OF_PERICENTER":72.1317,"MEAN_ANOMALY":288.0003,"EPHEMERIS_TYPE":0,"CLASSIFICATION_TYPE":"U","NORAD_CAT_ID":49201,"ELEMENT_SET_NO":999,"REV_AT_EPOCH":21707,"BSTAR":-0.00025858,"MEAN_MOTION_DOT":-8.2e-7,"MEAN_MOTION_DDOT":0},{"OBJECT_NAME":"ONEWEB-0336","OBJECT_ID":"2021-083S","EPOCH":"2026-03-03T16:14:10.826016","MEAN_MOTION":13.13469629,"ECCENTRICITY":0.0001866,"INCLINATION":87.9037,"RA_OF_ASC_NODE":341.2166,"ARG_OF_PERICENTER":65.561,"MEAN_ANOMALY":294.5713,"EPHEMERIS_TYPE":0,"CLASSIFICATION_TYPE":"U","NORAD_CAT_ID":49202,"ELEMENT_SET_NO":999,"REV_AT_EPOCH":21706,"BSTAR":0.0011335,"MEAN_MOTION_DOT":4.27e-6,"MEAN_MOTION_DDOT":0},{"OBJECT_NAME":"ONEWEB-0337","OBJECT_ID":"2021-083T","EPOCH":"2026-03-03T18:18:19.151424","MEAN_MOTION":13.1346945,"ECCENTRICITY":0.0001912,"INCLINATION":87.9032,"RA_OF_ASC_NODE":341.2097,"ARG_OF_PERICENTER":74.9182,"MEAN_ANOMALY":285.2159,"EPHEMERIS_TYPE":0,"CLASSIFICATION_TYPE":"U","NORAD_CAT_ID":49203,"ELEMENT_SET_NO":999,"REV_AT_EPOCH":21707,"BSTAR":0.00086763,"MEAN_MOTION_DOT":3.3e-6,"MEAN_MOTION_DDOT":0},{"OBJECT_NAME":"ONEWEB-0338","OBJECT_ID":"2021-083U","EPOCH":"2026-03-03T15:55:53.901120","MEAN_MOTION":13.20769807,"ECCENTRICITY":0.0001633,"INCLINATION":87.9174,"RA_OF_ASC_NODE":295.5277,"ARG_OF_PERICENTER":95.9916,"MEAN_ANOMALY":264.1403,"EPHEMERIS_TYPE":0,"CLASSIFICATION_TYPE":"U","NORAD_CAT_ID":49204,"ELEMENT_SET_NO":999,"REV_AT_EPOCH":22288,"BSTAR":3.4864e-5,"MEAN_MOTION_DOT":2.7e-7,"MEAN_MOTION_DDOT":0},{"OBJECT_NAME":"ONEWEB-0339","OBJECT_ID":"2021-083V","EPOCH":"2026-03-03T18:30:42.004800","MEAN_MOTION":13.13469227,"ECCENTRICITY":0.0001856,"INCLINATION":87.9042,"RA_OF_ASC_NODE":341.1951,"ARG_OF_PERICENTER":87.2168,"MEAN_ANOMALY":272.9173,"EPHEMERIS_TYPE":0,"CLASSIFICATION_TYPE":"U","NORAD_CAT_ID":49205,"ELEMENT_SET_NO":999,"REV_AT_EPOCH":21705,"BSTAR":0.00054164,"MEAN_MOTION_DOT":2.11e-6,"MEAN_MOTION_DDOT":0},{"OBJECT_NAME":"ONEWEB-0340","OBJECT_ID":"2021-083W","EPOCH":"2026-03-03T17:48:01.623744","MEAN_MOTION":13.18686187,"ECCENTRICITY":0.0001801,"INCLINATION":87.9251,"RA_OF_ASC_NODE":356.3918,"ARG_OF_PERICENTER":75.1292,"MEAN_ANOMALY":285.0039,"EPHEMERIS_TYPE":0,"CLASSIFICATION_TYPE":"U","NORAD_CAT_ID":49206,"ELEMENT_SET_NO":999,"REV_AT_EPOCH":21607,"BSTAR":6.1914e-5,"MEAN_MOTION_DOT":3.7e-7,"MEAN_MOTION_DDOT":0},{"OBJECT_NAME":"ONEWEB-0341","OBJECT_ID":"2021-083X","EPOCH":"2026-03-03T17:57:32.024448","MEAN_MOTION":13.18686142,"ECCENTRICITY":0.000232,"INCLINATION":87.9247,"RA_OF_ASC_NODE":356.4007,"ARG_OF_PERICENTER":76.5277,"MEAN_ANOMALY":283.6114,"EPHEMERIS_TYPE":0,"CLASSIFICATION_TYPE":"U","NORAD_CAT_ID":49207,"ELEMENT_SET_NO":999,"REV_AT_EPOCH":21609,"BSTAR":0.00016424,"MEAN_MOTION_DOT":7.8e-7,"MEAN_MOTION_DDOT":0}]
